ONEWEB-0205             
1 48226U 21031S   26194.77898706  .00000220  00000+0  55976-3 0  9991
2 48226  87.8977 284.4009 0002310  96.3315 263.8078 13.14502316251761
ONEWEB-0206             
1 48227U 21031T   26194.75202161 -.00000062  00000+0 -20193-3 0  9993
2 48227  87.8969 284.4067 0001894 101.8859 258.2483 13.14502010251712
ONEWEB-0182             
1 48228U 21031U   26194.74725800 -.00000159  00000+0 -46281-3 0  9996
2 48228  87.8969 284.4138 0001913  94.4618 265.6731 13.14503955251924
ONEWEB-0186             
1 48229U 21031V   26194.75836836  .00000030  00000+0  46822-4 0  9998
2 48229  87.8975 284.4053 0002117  99.2308 260.9061 13.14503038251874
ONEWEB-0181             
1 48230U 21031W   26194.73615258 -.00000290  00000+0 -81614-3 0  9998
2 48230  87.8960 284.4340 0002266  98.6431 261.4955 13.14501247251726
ONEWEB-0188             
1 48231U 21031X   26194.77422597  .00000237  00000+0  60506-3 0  9991
2 48231  87.8961 284.4259 0002056  98.0016 262.1347 13.14502095251632
ONEWEB-0220             
1 48232U 21031Y   26194.73774905 -.00000562  00000+0 -15502-2 0  9999
2 48232  87.8981 284.4096 0002159  94.0895 266.0482 13.14496480251890
ONEWEB-0165             
1 48233U 21031Z   26194.76630185  .00000183  00000+0  46019-3 0  9999
2 48233  87.8964 284.4162 0002380 105.1757 254.9636 13.14503747251851
ONEWEB-0199             
1 48234U 21031AA  26194.75044096 -.00000091  00000+0 -28008-3 0  9997
2 48234  87.8971 284.4066 0001852 101.7566 258.3772 13.14502204251751
ONEWEB-0203             
1 48235U 21031AB  26194.74092178 -.00000220  00000+0 -62665-3 0  9992
2 48235  87.8976 284.4106 0002061 105.3547 254.7811 13.14501298251761
ONEWEB-0197             
1 48236U 21031AC  26194.71541066  .00000076  00000+0  17158-3 0  9999
2 48236  87.8974 284.3984 0002035  89.2690 270.8673 13.14501954251677
ONEWEB-0194             
1 48237U 21031AD  26194.77105150  .00000219  00000+0  55709-3 0  9999
2 48237  87.8969 284.4122 0001904 106.1624 253.9715 13.14503995251853
ONEWEB-0193             
1 48238U 21031AE  26194.78691672  .00000160  00000+0  39773-3 0  9998
2 48238  87.8971 284.3990 0001803 113.6878 246.4441 13.14501968251807
ONEWEB-0191             
1 48239U 21031AF  26194.79800559  .00000006  00000+0 -19601-4 0  9995
2 48239  87.8977 284.3976 0001913  95.0170 265.1178 13.14506172251669
ONEWEB-0195             
1 48240U 21031AG  26194.77502097  .00000249  00000+0  63596-3 0  9990
2 48240  87.8984 284.4011 0002503  95.3027 264.8388 13.14503225251643
ONEWEB-0201             
1 48241U 21031AH  26194.76325956  .00000125  00000+0  30346-3 0  9997
2 48241  87.8967 284.4192 0002031  92.1598 267.9765 13.14502418251870
